{
  "links" : {
    "next" : "https://api.nasa.gov/neo/rest/v1/neo/browse?page=33&size=20&api_key=jqAGvNAwUIBu4fl9FSOjdm3V4F7hIglRzI6pdX9d",
    "prev" : "https://api.nasa.gov/neo/rest/v1/neo/browse?page=31&size=20&api_key=jqAGvNAwUIBu4fl9FSOjdm3V4F7hIglRzI6pdX9d",
    "self" : "https://api.nasa.gov/neo/rest/v1/neo/browse?page=32&size=20&api_key=jqAGvNAwUIBu4fl9FSOjdm3V4F7hIglRzI6pdX9d"
  },
  "page" : {
    "size" : 20,
    "total_elements" : 20750,
    "total_pages" : 1038,
    "number" : 32
  },
  "near_earth_objects" : [ {
    "links" : {
      "self" : "https://api.nasa.gov/neo/rest/v1/neo/3375501?api_key=jqAGvNAwUIBu4fl9FSOjdm3V4F7hIglRzI6pdX9d"
    },
    "neo_reference_id" : "3375501",
    "name" : "(2007 HZ58)",
    "designation" : "2007 HZ58",
    "nasa_jpl_url" : "http://ssd.jpl.nasa.gov/sbdb.cgi?sstr=3375501",
    "absolute_magnitude_h" : 24.9,
    "estimated_diameter" : {
      "kilometers" : {
        "estimated_diameter_min" : 0.0278326768,
        "estimated_diameter_max" : 0.0622357573
      },
      "meters" : {
        "estimated_diameter_min" : 27.8326768072,
        "estimated_diameter_max" : 62.2357573367
      },
      "miles" : {
        "estimated_diameter_min" : 0.0172944182,
        "estimated_diameter_max" : 0.0386714948
      },
      "feet" : {
        "estimated_diameter_min" : 91.3145593761,
        "estimated_diameter_max" : 204.1855621004
      }
    },
    "is_potentially_hazardous_asteroid" : false,
    "close_approach_data" : [ {
      "close_approach_date" : "2007-05-03",
      "epoch_date_close_approach" : 1178175600000,
      "relative_velocity" : {
        "kilometers_per_second" : "11.1237967327",
        "kilometers_per_hour" : "40045.6682378294",
        "miles_per_hour" : "24882.8209114446"
      },
      "miss_distance" : {
        "astronomical" : "0.0598101579",
        "lunar" : "23.2661514282",
        "kilometers" : "8947472",
        "miles" : "5559701.5"
      },
      "orbiting_body" : "Earth"
    } ],
    "orbital_data" : {
      "orbit_id" : "7",
      "orbit_determination_date" : "2017-04-06 09:06:29",
      "first_observation_date" : "2007-04-24",
      "last_observation_date" : "2007-04-27",
      "data_arc_in_days" : 3,
      "observations_used" : 35,
      "orbit_uncertainty" : "8",
      "minimum_orbit_intersection" : ".0519847",
      "jupiter_tisserand_invariant" : "3.549",
      "epoch_osculation" : "2454215.5",
      "eccentricity" : ".5377805430828707",
      "semi_major_axis" : "2.092955311837285",
      "inclination" : "6.549710554337746",
      "ascending_node_longitude" : "202.8435052540597",
      "orbital_period" : "1105.957301415616",
      "perihelion_distance" : ".9674046675892507",
      "perihelion_argument" : "58.43442302109082",
      "aphelion_distance" : "3.218505956085319",
      "perihelion_time" : "2454254.365843830488",
      "mean_anomaly" : "347.3487848391015",
      "mean_motion" : ".3255098542585714",
      "equinox" : "J2000",
      "orbit_class" : {
        "orbit_class_type" : "APO",
        "orbit_class_range" : "a (semi-major axis) > 1.0 AU; q (perihelion) < 1.017 AU",
        "orbit_class_description" : "Near-Earth asteroid orbits which cross the Earth’s orbit similar to that of 1862 Apollo"
      }
    },
    "is_sentry_object" : false
  }, {
    "links" : {
      "self" : "https://api.nasa.gov/neo/rest/v1/neo/3375773?api_key=jqAGvNAwUIBu4fl9FSOjdm3V4F7hIglRzI6pdX9d"
    },
    "neo_reference_id" : "3375773",
    "name" : "(2007 HD84)",
    "designation" : "2007 HD84",
    "nasa_jpl_url" : "http://ssd.jpl.nasa.gov/sbdb.cgi?sstr=3375773",
    "absolute_magnitude_h" : 23.5,
    "estimated_diameter" : {
      "kilometers" : {
        "estimated_diameter_min" : 0.0530340723,
        "estimated_diameter_max" : 0.1185877909
      },
      "meters" : {
        "estimated_diameter_min" : 53.0340723319,
        "estimated_diameter_max" : 118.5877908577
      },
      "miles" : {
        "estimated_diameter_min" : 0.0329538346,
        "estimated_diameter_max" : 0.0736870142
      },
      "feet" : {
        "estimated_diameter_min" : 173.9963058693,
        "estimated_diameter_max" : 389.0675677576
      }
    },
    "is_potentially_hazardous_asteroid" : false,
    "close_approach_data" : [ {
      "close_approach_date" : "2007-05-10",
      "epoch_date_close_approach" : 1178780400000,
      "relative_velocity" : {
        "kilometers_per_second" : "5.8817176561",
        "kilometers_per_hour" : "21174.1835619612",
        "miles_per_hour" : "13156.8142249309"
      },
      "miss_distance" : {
        "astronomical" : "0.1303421094",
        "lunar" : "50.7030830383",
        "kilometers" : "19498902",
        "miles" : "12116056"
      },
      "orbiting_body" : "Earth"
    } ],
    "orbital_data" : {
      "orbit_id" : "8",
      "orbit_determination_date" : "2017-04-06 09:06:28",
      "first_observation_date" : "2007-04-26",
      "last_observation_date" : "2007-05-21",
      "data_arc_in_days" : 25,
      "observations_used" : 40,
      "orbit_uncertainty" : "8",
      "minimum_orbit_intersection" : ".127428",
      "jupiter_tisserand_invariant" : "3.269",
      "epoch_osculation" : "2454221.5",
      "eccentricity" : ".5385235903942913",
      "semi_major_axis" : "2.46172966200739",
      "inclination" : "4.677345548496922",
      "ascending_node_longitude" : "50.97818946362439",
      "orbital_period" : "1410.778929784465",
      "perihelion_distance" : "1.136030165843045",
      "perihelion_argument" : "173.5533287920892",
      "aphelion_distance" : "3.787429158171735",
      "perihelion_time" : "2454227.772183032554",
      "mean_anomaly" : "358.3994757477244",
      "mean_motion" : ".2551781802234598",
      "equinox" : "J2000",
      "orbit_class" : {
        "orbit_class_type" : "AMO",
        "orbit_class_range" : "1.017 AU < q (perihelion) < 1.3 AU",
        "orbit_class_description" : "Near-Earth asteroid orbits similar to that of 1221 Amor"
      }
    },
    "is_sentry_object" : false
  }, {
    "links" : {
      "self" : "https://api.nasa.gov/neo/rest/v1/neo/3376006?api_key=jqAGvNAwUIBu4fl9FSOjdm3V4F7hIglRzI6pdX9d"
    },
    "neo_reference_id" : "3376006",
    "name" : "(2007 JD)",
    "designation" : "2007 JD",
    "nasa_jpl_url" : "http://ssd.jpl.nasa.gov/sbdb.cgi?sstr=3376006",
    "absolute_magnitude_h" : 23.1,
    "estimated_diameter" : {
      "kilometers" : {
        "estimated_diameter_min" : 0.063760979,
        "estimated_diameter_max" : 0.1425738833
      },
      "meters" : {
        "estimated_diameter_min" : 63.7609789875,
        "estimated_diameter_max" : 142.5738833281
      },
      "miles" : {
        "estimated_diameter_min" : 0.0396192233,
        "estimated_diameter_max" : 0.0885912765
      },
      "feet" : {
        "estimated_diameter_min" : 209.1895703015,
        "estimated_diameter_max" : 467.7620993781
      }
    },
    "is_potentially_hazardous_asteroid" : false,
    "close_approach_data" : [ {
      "close_approach_date" : "2007-05-11",
      "epoch_date_close_approach" : 1178866800000,
      "relative_velocity" : {
        "kilometers_per_second" : "25.02771199",
        "kilometers_per_hour" : "90099.7631641307",
        "miles_per_hour" : "55984.4889505122"
      },
      "miss_distance" : {
        "astronomical" : "0.0302108659",
        "lunar" : "11.7520265579",
        "kilometers" : "4519481",
        "miles" : "2808275.5"
      },
      "orbiting_body" : "Earth"
    } ],
    "orbital_data" : {
      "orbit_id" : "9",
      "orbit_determination_date" : "2017-04-06 09:06:28",
      "first_observation_date" : "2007-05-07",
      "last_observation_date" : "2007-05-11",
      "data_arc_in_days" : 4,
      "observations_used" : 38,
      "orbit_uncertainty" : "8",
      "minimum_orbit_intersection" : ".000949069",
      "jupiter_tisserand_invariant" : "2.664",
      "epoch_osculation" : "2454228.5",
      "eccentricity" : ".8143183438778068",
      "semi_major_axis" : "2.852111413742841",
      "inclination" : "12.29707620640755",
      "ascending_node_longitude" : "228.8442482147365",
      "orbital_period" : "1759.333437168914",
      "perihelion_distance" : ".5295847707487806",
      "perihelion_argument" : "93.13942705146033",
      "aphelion_distance" : "5.174638056736902",
      "perihelion_time" : "2454276.436629611271",
      "mean_anomaly" : "350.1910653799501",
      "mean_motion" : ".204622951166838",
      "equinox" : "J2000",
      "orbit_class" : {
        "orbit_class_type" : "APO",
        "orbit_class_range" : "a (semi-major axis) > 1.0 AU; q (perihelion) < 1.017 AU",
        "orbit_class_description" : "Near-Earth asteroid orbits which cross the Earth’s orbit similar to that of 1862 Apollo"
      }
    },
    "is_sentry_object" : false
  } ]
}